GPS BIIA-23 (PRN 18)    
1 22877U 93068A   18170.65376319 -.00000057  00000-0  00000-0 0  9992
2 22877  54.4274  83.4031 0144597  75.0724 304.9554  2.00566369180587
GPS BIIR-2  (PRN 13)    
1 24876U 97035A   18170.51978590  .00000031  00000-0  00000-0 0  9996
2 24876  55.4879 212.6758 0030901  89.1815 271.2392  2.00564884153397
GPS BIIR-3  (PRN 11)    
1 25933U 99055A   18170.67436628 -.00000088  00000-0  00000-0 0  9996
2 25933  51.8892  61.5815 0167085 101.6973 295.7895  2.00567033137021
GPS BIIR-4  (PRN 20)    
1 26360U 00025A   18170.91814354  .00000046  00000-0  00000-0 0  9996
2 26360  53.2035 139.5534 0040951 114.0937 148.0074  2.00425831132714
GPS BIIR-5  (PRN 28)    
1 26407U 00040A   18170.90936417 -.00000066  00000-0  00000-0 0  9992
2 26407  56.4798 330.7883 0196700 272.8898 320.5561  2.00563030131397
GPS BIIR-6  (PRN 14)    
1 26605U 00071A   18170.70175113  .00000035  00000-0  00000-0 0  9997
2 26605  55.0612 210.2591 0101904 248.7984  99.1231  2.00572467128983
GPS BIIR-8  (PRN 16)    
1 27663U 03005A   18170.93173053 -.00000065  00000-0  00000-0 0  9992
2 27663  56.5441 330.5453 0099049  28.6928 340.6279  2.00566755112764
GPS BIIR-9  (PRN 21)    
1 27704U 03010A   18170.85733309 -.00000061  00000-0  00000-0 0  9997
2 27704  54.0981  82.9800 0246156 271.2259   3.7018  2.00561841111557
GPS BIIR-10 (PRN 22)    
1 28129U 03058A   18170.21301301  .00000048  00000-0  00000+0 0  9997
2 28129  53.0165 142.4369 0075726 272.6120  86.4956  2.00549769106232
GPS BIIR-11 (PRN 19)    
1 28190U 04009A   18170.65864684 -.00000090  00000-0  00000-0 0  9997
2 28190  56.1728  31.4046 0096670  68.8093 250.8436  2.00558881104427
GPS BIIR-12 (PRN 23)    
1 28361U 04023A   18170.86203264  .00000042  00000-0  00000-0 0  9993
2 28361  54.0619 204.9902 0127533 225.9583 157.7519  2.00550708102496
GPS BIIR-13 (PRN 02)    
1 28474U 04045A   18170.72227000 -.00000059  00000-0  00000-0 0  9990
2 28474  54.4665  82.6002 0181280 254.2341  27.9558  2.00553518 99874
GPS BIIRM-1 (PRN 17)    
1 28874U 05038A   18170.66021653 -.00000089  00000-0  00000-0 0  9999
2 28874  56.3140  28.7149 0125736 258.4136  84.2673  2.00575641 93275
GPS BIIRM-2 (PRN 31)    
1 29486U 06042A   18170.94147042 -.00000050  00000-0  00000-0 0  9995
2 29486  55.1771 267.5589 0087769 351.2306 119.8071  2.00562792 85885
GPS BIIRM-3 (PRN 12)    
1 29601U 06052A   18170.73153511 -.00000064  00000-0  00000-0 0  9995
2 29601  56.5200 329.4699 0069866  55.9804 304.6781  2.00575727 84855
GPS BIIRM-4 (PRN 15)    
1 32260U 07047A   18170.55300887  .00000044  00000-0  00000-0 0  9992
2 32260  53.1865 201.0225 0101556  38.0056 322.7618  2.00553007 78292
GPS BIIRM-5 (PRN 29)    
1 32384U 07062A   18170.86248362 -.00000090  00000-0  00000-0 0  9991
2 32384  56.3881  29.3163 0005990  65.7661 292.6789  2.00563536 76995
GPS BIIRM-6 (PRN 07)    
1 32711U 08012A   18170.46358338 -.00000045  00000-0  00000-0 0  9992
2 32711  54.9112 266.8564 0119069 216.3796 142.8468  2.00565306 75210
GPS BIIRM-8 (PRN 05)    
1 35752U 09043A   18170.78738006  .00000055  00000-0  00000-0 0  9994
2 35752  54.3222 144.6059 0052922  33.4290 230.2789  2.00557119 64801
GPS BIIF-1  (PRN 25)    
1 36585U 10022A   18170.80398240 -.00000066  00000-0  00000-0 0  9996
2 36585  55.8107 326.0270 0073139  48.5211 330.0399  2.00568692 59042
GPS BIIF-2  (PRN 01)    
1 37753U 11036A   18170.70653056 -.00000052  00000-0  00000-0 0  9993
2 37753  55.6661  86.1306 0077649  35.5621 359.2475  2.00564239 50725
GPS BIIF-3  (PRN 24)    
1 38833U 12053A   18170.64433351 -.00000044  00000-0  00000-0 0  9991
2 38833  53.9411 263.4038 0068437  29.4126 331.0141  2.00566764 40999
GPS BIIF-4  (PRN 27)    
1 39166U 13023A   18170.50213911 -.00000089  00000-0  00000-0 0  9991
2 39166  56.0111  25.6165 0058951  23.0268 337.2825  2.00562544 37328
GPS BIIF-5  (PRN 30)    
1 39533U 14008A   18170.50175639 -.00000048  00000-0  00000-0 0  9992
2 39533  54.0858 268.7598 0035295 188.6959 171.2805  2.00557161 31140
GPS BIIF-6  (PRN 06)    
1 39741U 14026A   18170.28181786 -.00000049  00000-0  00000-0 0  9999
2 39741  55.6492  85.6704 0013251 294.8040  65.0668  2.00566924 29978
GPS BIIF-7  (PRN 09)    
1 40105U 14045A   18170.37386841  .00000040  00000-0  00000-0 0  9995
2 40105  54.5877 205.1159 0006846 111.9339 248.1986  2.00571635 27547
GPS BIIF-8  (PRN 03)    
1 40294U 14068A   18170.74438612  .00000059  00000-0  00000-0 0  9994
2 40294  55.0732 145.8765 0013769  17.0184 343.0057  2.00556039 26657
GPS BIIF-9  (PRN 26)    
1 40534U 15013A   18170.38096331 -.00000066  00000-0  00000-0 0  9999
2 40534  54.7521 324.7628 0027679   2.4597 357.5485  2.00563455 23262
GPS BIIF-10  (PRN 08)   
1 40730U 15033A   18170.04642761 -.00000088  00000-0  00000+0 0  9999
2 40730  55.5413  25.1397 0035660 332.8833  26.9761  2.00574463 21449
GPS BIIF-11  (PRN 10)   
1 41019U 15062A   18170.59433660  .00000058  00000-0  00000-0 0  9995
2 41019  55.0782 145.6853 0036788 206.0040 153.7892  2.00564307 19271
GPS BIIF-12  (PRN 32)   
1 41328U 16007A   18170.68194524  .00000042  00000-0  00000-0 0  9994
2 41328  54.8382 205.3943 0023503 219.1984 140.6910  2.00563079 17330
